NORAD_CAT_ID,OBJECT_NAME,OBJECT_TYPE,EPOCH,MEAN_MOTION,ECCENTRICITY,INCLINATION,RA_OF_ASC_NODE,ARG_OF_PERICENTER,MEAN_ANOMALY,BSTAR,MEAN_MOTION_DOT,MEAN_MOTION_DDOT,TLE_LINE0,TLE_LINE1,TLE_LINE2,SEMIMAJOR_AXIS,PERIOD,APOGEE,PERIGEE,DECAYED
53700.0,STARLINK-4725,PAYLOAD,2023-06-07 01:39:50,15.08840132,0.0001088,53.2167,82.6406,93.9786,266.1331,-3.0396e-06,-3.36e-06,0.0,0 STARLINK-4725,1 53700U 22107A   23158.06932929 -.00000336  00000-0 -30396-5 0  9996,2 53700  53.2167  82.6406 0001088  93.9786 266.1331 15.08840132 42141,6917.88,95.438,540.498,538.992,0.0
53700.0,STARLINK-4725,PAYLOAD,2023-06-07 22:19:51,15.08831562,0.0001073,53.2172,78.7752,101.2403,258.871,-5.188e-05,-1.113e-05,0.0,0 STARLINK-4725,1 53700U 22107A   23158.93045783 -.00001113  00000-0 -51880-4 0  9999,2 53700  53.2172  78.7752 0001073 101.2403 258.8710 15.08831562 42270,6917.906,95.438,540.513,539.029,0.0
53700.0,STARLINK-4725,PAYLOAD,2023-06-08 04:41:23,15.08837572,0.0001231,53.2176,77.5854,103.2175,256.8954,-6.0017e-05,-1.243e-05,0.0,0 STARLINK-4725,1 53700U 22107A   23159.19541537 -.00001243  00000-0 -60017-4 0  9992,2 53700  53.2176  77.5854 0001231 103.2175 256.8954 15.08837572 43061,6917.888,95.438,540.604,538.901,0.0
53700.0,STARLINK-4725,PAYLOAD,2023-06-09 10:53:43,15.08840502,0.0001019,53.2177,71.9351,97.3583,262.7525,7.781e-05,9.51e-06,0.0,0 STARLINK-4725,1 53700U 22107A   23160.45397033  .00000951  00000-0  77810-4 0  9995,2 53700  53.2177  71.9351 0001019  97.3583 262.7525 15.08840502 42507,6917.879,95.438,540.449,539.039,0.0
53700.0,STARLINK-4725,PAYLOAD,2023-06-09 17:15:15,15.08839951,0.0001315,53.2184,70.75,121.3815,238.7306,3.3884e-05,2.51e-06,0.0,0 STARLINK-4725,1 53700U 22107A   23160.71893295  .00000251  00000-0  33884-4 0  9991,2 53700  53.2184  70.7500 0001315 121.3815 238.7306 15.08839951 43296,6917.881,95.438,540.655,538.836,0.0
53700.0,STARLINK-4725,PAYLOAD,2023-06-10 04:22:58,15.08819259,0.0001424,53.2186,68.6657,114.5455,245.5685,0.00031456,4.719e-05,0.0,0 STARLINK-4725,1 53700U 22107A   23161.18261704  .00004719  00000-0  31456-3 0  9992,2 53700  53.2186  68.6657 0001424 114.5455 245.5685 15.08819259 42612,6917.944,95.439,540.794,538.824,0.0
53700.0,STARLINK-4725,PAYLOAD,2023-06-10 10:44:30,15.08836866,0.000107,53.2182,67.4765,92.8719,267.2395,-3.5224e-06,-3.44e-06,0.0,0 STARLINK-4725,1 53700U 22107A   23161.44757771 -.00000344  00000-0 -35224-5 0  9996,2 53700  53.2182  67.4765 0001070  92.8719 267.2395 15.08836866 43403,6917.89,95.438,540.495,539.015,0.0
53700.0,STARLINK-4725,PAYLOAD,2023-06-11 10:35:18,15.08838076,0.0001149,53.218,63.0156,88.7701,271.3423,-4.12e-05,-9.43e-06,0.0,0 STARLINK-4725,1 53700U 22107A   23162.44118059 -.00000943  00000-0 -41200-4 0  9992,2 53700  53.2180  63.0156 0001149  88.7701 271.3423 15.08838076 43558,6917.886,95.438,540.546,538.956,0.0
53700.0,STARLINK-4725,PAYLOAD,2023-06-12 02:29:08,15.08846087,0.0001126,53.2175,60.0412,88.5062,271.6059,4.6048e-05,4.45e-06,0.0,0 STARLINK-4725,1 53700U 22107A   23163.10357223  .00000445  00000-0  46048-4 0  9994,2 53700  53.2175  60.0412 0001126  88.5062 271.6059 15.08846087 42904,6917.862,95.437,540.506,538.948,0.0
53700.0,STARLINK-4725,PAYLOAD,2023-06-12 10:26:04,15.0884209,9.69e-05,53.2175,58.554,91.3269,268.7834,-1.8102e-05,-5.76e-06,0.0,0 STARLINK-4725,1 53700U 22107A   23163.43477628 -.00000576  00000-0 -18102-4 0  9999,2 53700  53.2175  58.5540 0000969  91.3269 268.7834 15.08842090 43700,6917.874,95.437,540.409,539.069,0.0
53700.0,STARLINK-4725,PAYLOAD,2023-06-12 23:09:09,15.08840543,0.0001084,53.217,56.1743,95.5348,264.5768,-6.2064e-06,-3.87e-06,0.0,0 STARLINK-4725,1 53700U 22107A   23163.96469800 -.00000387  00000-0 -62064-5 0  9997,2 53700  53.2170  56.1743 0001084  95.5348 264.5768 15.08840543 43034,6917.879,95.438,540.494,538.994,0.0
53700.0,STARLINK-4725,PAYLOAD,2023-06-12 23:09:10,15.08834129,0.0001079,53.2178,56.1732,87.0941,273.0175,1.5775e-05,-3.7e-07,0.0,0 STARLINK-4725,1 53700U 22107A   23163.96470107 -.00000037  00000-0  15775-4 0  9996,2 53700  53.2178  56.1732 0001079  87.0941 273.0175 15.08834129 43039,6917.898,95.438,540.51,539.017,0.0
53700.0,STARLINK-4725,PAYLOAD,2023-06-14 02:10:43,15.08842857,0.0001073,53.2171,51.1191,92.4534,267.6581,-3.8265e-05,-8.97e-06,0.0,0 STARLINK-4725,1 53700U 22107A   23165.09077797 -.00000897  00000-0 -38265-4 0  9994,2 53700  53.2171  51.1191 0001073  92.4534 267.6581 15.08842857 43204,6917.872,95.437,540.479,538.994,0.0
53700.0,STARLINK-4725,PAYLOAD,2023-06-15 17:55:21,15.08839449,9.73e-05,53.2178,43.6881,81.0684,279.0418,-2.6613e-05,-7.11e-06,0.0,0 STARLINK-4725,1 53700U 22107A   23166.74678160 -.00000711  00000-0 -26613-4 0  9997,2 53700  53.2178  43.6881 0000973  81.0684 279.0418 15.08839449 43457,6917.882,95.438,540.42,539.074,0.0
53700.0,STARLINK-4725,PAYLOAD,2023-06-16 01:52:16,15.08848256,9.97e-05,53.2175,42.1998,90.1218,269.9889,4.4705e-05,4.24e-06,0.0,0 STARLINK-4725,1 53700U 22107A   23167.07797272  .00000424  00000-0  44705-4 0  9991,2 53700  53.2175  42.1998 0000997  90.1218 269.9889 15.08848256 43509,6917.855,95.437,540.41,539.03,0.0
53700.0,STARLINK-4725,PAYLOAD,2023-06-16 09:49:13,15.08830893,7.13e-05,53.2175,40.7134,91.2654,268.842,-5.3243e-05,-1.135e-05,0.0,0 STARLINK-4725,1 53700U 22107A   23167.40918498 -.00001135  00000-0 -53243-4 0  9992,2 53700  53.2175  40.7134 0000713  91.2654 268.8420 15.08830893 43559,6917.908,95.438,540.266,539.28,0.0
53700.0,STARLINK-4725,PAYLOAD,2023-06-16 11:24:36,15.08831708,8.85e-05,53.2176,40.4161,91.601,268.5084,-4.2082e-06,-3.55e-06,0.0,0 STARLINK-4725,1 53700U 22107A   23167.47542366 -.00000355  00000-0 -42082-5 0  9999,2 53700  53.2176  40.4161 0000885  91.6010 268.5084 15.08831708 44311,6917.906,95.438,540.383,539.158,0.0
53700.0,STARLINK-4725,PAYLOAD,2023-06-16 16:10:45,15.08841007,9.41e-05,53.2175,39.5235,94.1995,265.9105,-9.2561e-06,-4.35e-06,0.0,0 STARLINK-4725,1 53700U 22107A   23167.67414052 -.00000435  00000-0 -92561-5 0  9997,2 53700  53.2175  39.5235 0000941  94.1995 265.9105 15.08841007 43591,6917.877,95.437,540.393,539.091,0.0
53700.0,STARLINK-4725,PAYLOAD,2023-06-16 19:21:31,15.08844682,9.4e-05,53.2176,38.9286,89.1169,270.9931,2.0023e-05,3.1e-07,0.0,0 STARLINK-4725,1 53700U 22107A   23167.80661706  .00000031  00000-0  20023-4 0  9995,2 53700  53.2176  38.9286 0000940  89.1169 270.9931 15.08844682 44368,6917.866,95.437,540.381,539.081,0.0
53700.0,STARLINK-4725,PAYLOAD,2023-06-17 01:43:03,15.0885181,9.43e-05,53.2175,37.7392,88.7521,271.358,8.773e-05,1.109e-05,0.0,0 STARLINK-4725,1 53700U 22107A   23168.07156847  .00001109  00000-0  87730-4 0  9995,2 53700  53.2175  37.7392 0000943  88.7521 271.3580 15.08851810 43659,6917.844,95.437,540.362,539.057,0.0
53700.0,STARLINK-4725,PAYLOAD,2023-06-17 08:04:38,15.08815552,0.0001111,53.2175,36.5502,84.8533,275.2586,-0.00022062,-3.795e-05,0.0,0 STARLINK-4725,1 53700U 22107A   23168.33656236 -.00003795  00000-0 -22062-3 0  9992,2 53700  53.2175  36.5502 0001111  84.8533 275.2586 15.08815552 43693,6917.955,95.439,540.589,539.052,0.0
53700.0,STARLINK-4725,PAYLOAD,2023-06-17 11:15:24,15.08828468,0.0001047,53.2176,35.9555,107.31,252.8006,-9.208e-05,-1.752e-05,0.0,0 STARLINK-4725,1 53700U 22107A   23168.46903057 -.00001752  00000-0 -92080-4 0  9991,2 53700  53.2176  35.9555 0001047 107.3100 252.8006 15.08828468 44468,6917.916,95.438,540.505,539.056,0.0
53700.0,STARLINK-4725,PAYLOAD,2023-06-17 17:36:57,15.08821723,9.26e-05,53.2177,34.766,101.1693,258.9404,-0.00014583,-2.607e-05,0.0,0 STARLINK-4725,1 53700U 22107A   23168.73399895 -.00002607  00000-0 -14583-3 0  9991,2 53700  53.2177  34.7660 0000926 101.1693 258.9404 15.08821723 43754,6917.936,95.439,540.442,539.161,0.0
53700.0,STARLINK-4725,PAYLOAD,2023-06-17 20:47:43,15.08825556,9.24e-05,53.2176,34.1712,101.2528,258.8568,-0.00013181,-2.384e-05,0.0,0 STARLINK-4725,1 53700U 22107A   23168.86647732 -.00002384  00000-0 -13181-3 0  9996,2 53700  53.2176  34.1712 0000924 101.2528 258.8568 15.08825556 44525,6917.925,95.438,540.429,539.15,0.0
53700.0,STARLINK-4725,PAYLOAD,2023-06-17 23:58:29,15.08826426,9.25e-05,53.2176,33.5765,100.8345,259.2751,-9.2045e-05,-1.752e-05,0.0,0 STARLINK-4725,1 53700U 22107A   23168.99895647 -.00001752  00000-0 -92045-4 0  9995,2 53700  53.2176  33.5765 0000925 100.8345 259.2751 15.08826426 43793,6917.922,95.438,540.427,539.147,0.0
53700.0,STARLINK-4725,PAYLOAD,2023-06-18 06:20:01,15.08834929,9.01e-05,53.2176,32.387,99.4813,260.6281,-6.2284e-05,-1.279e-05,0.0,0 STARLINK-4725,1 53700U 22107A   23169.26391156 -.00001279  00000-0 -62284-4 0  9998,2 53700  53.2176  32.3870 0000901  99.4813 260.6281 15.08834929 43830,6917.896,95.438,540.384,539.138,0.0
53700.0,STARLINK-4725,PAYLOAD,2023-06-18 11:06:11,15.08839067,8.54e-05,53.2177,31.4946,108.1046,252.004,-7.1584e-05,-1.427e-05,0.0,0 STARLINK-4725,1 53700U 22107A   23169.46262922 -.00001427  00000-0 -71584-4 0  9996,2 53700  53.2177  31.4946 0000854 108.1046 252.0040 15.08839067 44611,6917.883,95.438,540.339,539.157,0.0
53700.0,STARLINK-4725,PAYLOAD,2023-06-18 17:27:43,15.08837879,8.62e-05,53.2177,30.3053,96.6796,263.4294,8.6512e-05,1.089e-05,0.0,0 STARLINK-4725,1 53700U 22107A   23169.72758585  .00001089  00000-0  86512-4 0  9999,2 53700  53.2177  30.3053 0000862  96.6796 263.4294 15.08837879 43907,6917.887,95.438,540.348,539.156,0.0
53700.0,STARLINK-4725,PAYLOAD,2023-06-18 19:03:06,15.08841963,8.78e-05,53.2177,30.008,95.4001,264.7092,6.2345e-05,7.05e-06,0.0,0 STARLINK-4725,1 53700U 22107A   23169.79382427  .00000705  00000-0  62345-4 0  9996,2 53700  53.2177  30.0080 0000878  95.4001 264.7092 15.08841963 44660,6917.874,95.437,540.347,539.132,0.0
53700.0,STARLINK-4725,PAYLOAD,2023-06-19 10:56:59,15.08830992,8.17e-05,53.2177,27.0343,92.075,268.0336,-0.00014416,-2.581e-05,0.0,0 STARLINK-4725,1 53700U 22107A   23170.45623884 -.00002581  00000-0 -14416-3 0  9997,2 53700  53.2177  27.0343 0000817  92.0750 268.0336 15.08830992 44012,6917.908,95.438,540.338,539.208,0.0
